GPS BIIR-2  (PRN 13)    
1 24876U 97035A   17322.12953075  .00000013  00000-0  00000+0 0  9991
2 24876  55.5189 221.0576 0033867  96.6048 263.8488  2.00565186148910
GPS BIIR-3  (PRN 11)    
1 25933U 99055A   17322.44950785 -.00000070  00000-0  00000+0 0  9994
2 25933  51.7415  70.8897 0167254  98.5946  59.5738  2.00555094132735
GPS BIIR-4  (PRN 20)    
1 26360U 00025A   17322.32923049  .00000054  00000-0  00000+0 0  9999
2 26360  53.1466 148.4595 0044250  98.8350  75.0206  2.00553316128420
GPS BIIR-5  (PRN 28)    
1 26407U 00040A   17322.37018785 -.00000071  00000-0  00000+0 0  9995
2 26407  56.5785 339.1332 0202044 271.1587 216.8592  2.00565323127104
GPS BIIR-6  (PRN 14)    
1 26605U 00071A   17322.44989066  .00000018  00000-0  00000+0 0  9996
2 26605  55.0907 218.7173 0094794 248.7942 203.9533  2.00558717124710
GPS BIIR-7  (PRN 18)    
1 26690U 01004A   17322.53915885  .00000054  00000-0  00000+0 0  9995
2 26690  53.0661 151.3784 0183832 258.6030  12.8301  2.00567071123115
GPS BIIR-8  (PRN 16)    
1 27663U 03005A   17322.17301206 -.00000071  00000-0  00000+0 0  9995
2 27663  56.6456 338.8888 0093627  24.2860  73.9320  2.00580141108467
GPS BIIR-9  (PRN 21)    
1 27704U 03010A   17322.16969003 -.00000037  00000-0  00000+0 0  9993
2 27704  53.9556  91.8327 0243416 266.9018 158.4352  2.00575768107261
GPS BIIR-10 (PRN 22)    
1 28129U 03058A   17321.82540427  .00000059  00000-0  00000+0 0  9997
2 28129  52.9575 151.3814 0073617 265.2978  93.9162  2.00563346101958
GPS BIIR-11 (PRN 19)    
1 28190U 04009A   17322.44067694 -.00000086  00000-0  00000+0 0  9992
2 28190  56.0819  39.8202 0096167  62.1372  26.4638  2.00562575100142
GPS BIIR-12 (PRN 23)    
1 28361U 04023A   17322.26814156  .00000023  00000-0  00000+0 0  9991
2 28361  54.0826 213.6802 0119964 222.5160  12.0133  2.00566348 98222
GPS BIIR-13 (PRN 02)    
1 28474U 04045A   17322.48959237 -.00000036  00000-0  00000+0 0  9999
2 28474  54.3307  91.3512 0175358 249.2290 149.3366  2.00569294 95594
GPS BIIRM-1 (PRN 17)    
1 28874U 05038A   17322.25298639 -.00000087  00000-0  00000+0 0  9999
2 28874  56.2320  37.1108 0123833 255.4794  79.0744  2.00559239 88995
GPS BIIRM-2 (PRN 31)    
1 29486U 06042A   17322.55660687 -.00000053  00000-0  00000+0 0  9997
2 29486  55.3048 276.1090 0088013 346.0567 125.2367  2.00577196 81712
GPS BIIRM-3 (PRN 12)    
1 29601U 06052A   17321.84475585 -.00000070  00000-0  00000+0 0  9998
2 29601  56.6197 337.8194 0063985  50.7327 309.8732  2.00562467 80613
GPS BIIRM-4 (PRN 15)    
1 32260U 07047A   17322.15891515  .00000027  00000-0  00000+0 0  9999
2 32260  53.2079 209.8958 0097883  35.2334 325.4962  2.00566052 74005
GPS BIIRM-5 (PRN 29)    
1 32384U 07062A   17321.93089142 -.00000088  00000-0  00000+0 0  9991
2 32384  56.3002  37.7160 0002702  28.3108 306.2105  2.00552175 72727
GPS BIIRM-6 (PRN 07)    
1 32711U 08012A   17322.07020953 -.00000057  00000-0  00000+0 0  9998
2 32711  55.0353 275.4584 0112233 215.0537 144.1836  2.00559113 70917
GPS BIIRM-8 (PRN 05)    
1 35752U 09043A   17322.49206105  .00000059  00000-0  00000+0 0  9993
2 35752  54.2757 153.2598 0051524  33.7318 297.7648  2.00572793 60508
GPS BIIF-1  (PRN 25)    
1 36585U 10022A   17321.45886083 -.00000070  00000-0  00000+0 0  9995
2 36585  55.9200 334.5453 0065193  44.8262   6.5273  2.00557845 54735
GPS BIIF-2  (PRN 01)    
1 37753U 11036A   17322.39076903 -.00000029  00000-0  00000+0 0  9999
2 37753  55.5339  94.6266 0069938  34.7313  55.3166  2.00563211 46439
GPS BIIF-3  (PRN 24)    
1 38833U 12053A   17322.25503040 -.00000055  00000-0  00000+0 0  9990
2 38833  54.0639 272.2161 0062046  25.4973 334.7885  2.00563987 37506
GPS BIIF-4  (PRN 27)    
1 39166U 13023A   17322.10840186 -.00000089  00000-0  00000+0 0  9994
2 39166  55.9355  34.0815 0049710  18.6675 341.5568  2.00563857 33031
GPS BIIF-5  (PRN 30)    
1 39533U 14008A   17321.61049889 -.00000063  00000-0  00000+0 0  9994
2 39533  54.2152 277.5615 0030428 189.0421 170.8812  2.00571459 27389
GPS BIIF-6  (PRN 06)    
1 39741U 14026A   17321.89598237 -.00000031  00000-0  00000+0 0  9996
2 39741  55.5191  94.1681 0008653 282.4270  77.4468  2.00550543 25678
GPS BIIF-7  (PRN 09)    
1 40105U 14045A   17322.48144102  .00000025  00000-0  00000+0 0  9999
2 40105  54.6071 213.6617 0007924 103.0617 257.1089  2.00556169 24137
GPS BIIF-8  (PRN 03)    
1 40294U 14068A   17322.35393958  .00000062  00000-0  00000+0 0  9995
2 40294  55.0249 154.3663 0010156  22.5983 337.5059  2.00570174 22356
GPS BIIF-9  (PRN 26)    
1 40534U 15013A   17321.99549588 -.00000074  00000-0  00000+0 0  9998
2 40534  54.8689 333.4629 0022702 349.2698  10.7123  2.00576586 19410
GPS BIIF-10  (PRN 08)   
1 40730U 15033A   17319.65766662 -.00000099  00000-0  00000+0 0  9999
2 40730  55.4674  33.7814 0030094 320.0101  39.8026  2.00558629 17122
GPS BIIF-11  (PRN 10)   
1 41019U 15062A   17321.20638156  .00000072  00000-0  00000+0 0  9992
2 41019  55.0321 154.2065 0030154 198.5724 161.3813  2.00564007 14973
GPS BIIF-12  (PRN 32)   
1 41328U 16007A   17321.29731461  .00000017  00000-0  00000+0 0  9996
2 41328  54.8617 213.9412 0016011 216.4812 143.4852  2.00571309 13037
